[{"OBJECT_NAME":"STARLINK-34794","OBJECT_ID":"2025-165Q","EPOCH":"2026-03-09T19:13:11.286912","MEAN_MOTION":15.05626104,"ECCENTRICITY":6.586e-5,"INCLINATION":97.6016,"RA_OF_ASC_NODE":147.2836,"ARG_OF_PERICENTER":163.6731,"MEAN_ANOMALY":196.4517,"EPHEMERIS_TYPE":0,"CLASSIFICATION_TYPE":"U","NORAD_CAT_ID":65070,"ELEMENT_SET_NO":999,"REV_AT_EPOCH":3480,"BSTAR":8.9258012e-5,"MEAN_MOTION_DOT":1.227e-5,"MEAN_MOTION_DDOT":0},{"OBJECT_NAME":"OBJECT H","OBJECT_ID":"2025-292H","EPOCH":"2026-03-09T22:24:53.558208","MEAN_MOTION":15.06373042,"ECCENTRICITY":0.00142604,"INCLINATION":97.6442,"RA_OF_ASC_NODE":145.7846,"ARG_OF_PERICENTER":348.9217,"MEAN_ANOMALY":11.1694,"EPHEMERIS_TYPE":0,"CLASSIFICATION_TYPE":"U","NORAD_CAT_ID":67000,"ELEMENT_SET_NO":999,"REV_AT_EPOCH":1338,"BSTAR":0.0005462937,"MEAN_MOTION_DOT":8.001e-5,"MEAN_MOTION_DDOT":0}]
